STARLINK-31499          
1 59217U 24046S   25346.04328508  .00000339  00000+0  23575-4 0  9990
2 59217  53.1593 202.2225 0001066 101.3672 258.7449 15.30196428 99624
STARLINK-31421          
1 59218U 24046T   25346.03801290  .00001508  00000+0  63024-4 0  9996
2 59218  53.1590 202.2151 0001236  93.1425 266.9717 15.30197824 99623
STARLINK-31518          
1 59219U 24046U   25345.98430249 -.00000175  00000+0  62271-5 0  9996
2 59219  53.1596 202.5630 0001291  95.5107 264.6041 15.30194345 99618
STARLINK-31523          
1 59220U 24046V   25345.93481469 -.00001124  00000+0 -25830-4 0  9998
2 59220  53.1600 202.9662 0001404  85.7501 274.3660 15.30199978 99601
STARLINK-31516          
1 59221U 24046W   25346.04011763  .00000509  00000+0  29301-4 0  9999
2 59221  53.1596 202.2025 0001006  98.2384 261.8731 15.30197169 99620
STARLINK-31490          
1 59222U 24046X   25346.02334164 -.00005094  00000+0 -15986-3 0  9990
2 59222  53.1609 202.8016 0001511  80.3515 279.7656 15.30223068 99612
STARLINK-31420          
1 59223U 24046Y   25346.02018375  .00020085  00000+0  68799-3 0  9999
2 59223  53.1584 202.7845 0001014  77.3976 282.7138 15.30219747 99617
STARLINK-31304          
1 59231U 24049A   25346.33349537  .00185519  00000+0  54882-2 0  9993
2 59231  43.0006 265.6561 0006830 194.5904 253.5242 15.33435260  5814
STARLINK-31305          
1 59232U 24049B   25346.17131205 -.00004430  00000+0 -15157-3 0  9994
2 59232  43.0031 277.5766 0001378 268.9868  91.0826 15.27573861 99009
STARLINK-31459          
1 59233U 24049C   25346.18673752 -.00002915  00000+0 -96477-4 0  9995
2 59233  43.0031 277.7075 0001302 270.4511  89.6192 15.27572418 99012
STARLINK-31438          
1 59234U 24049D   25346.20473368 -.00001060  00000+0 -28982-4 0  9996
2 59234  43.0102 266.5897 0003553 243.3028 116.7460 15.27563102 99146
STARLINK-31467          
1 59235U 24049E   25346.18417716 -.00007893  00000+0 -27779-3 0  9991
2 59235  43.0002 277.6890 0001073 278.6404  81.4326 15.27559169 99020
STARLINK-31444          
1 59236U 24049F   25345.99909845  .00000396  00000+0  23911-4 0  9993
2 59236  42.9991 209.2663 0000982 273.1405  86.9335 15.27578195 99765
STARLINK-31505          
1 59237U 24049G   25346.19058690 -.00006711  00000+0 -23471-3 0  9999
2 59237  43.0009 277.7468 0001257 264.9276  95.1432 15.27559728 99021
STARLINK-31494          
1 59238U 24049H   25346.16877458 -.00005362  00000+0 -18581-3 0  9995
2 59238  42.9983 277.5734 0000389 336.7680  23.3154 15.27524708 99021
STARLINK-31303          
1 59239U 24049J   25346.15605349 -.00001709  00000+0 -52622-4 0  9999
2 59239  42.9995 267.0307 0001050 300.5810  59.4938 15.27565144 99147
