[{"OBJECT_NAME":"STARLINK-31499","OBJECT_ID":"2024-046S","EPOCH":"2025-12-12T01:02:19.830912","MEAN_MOTION":15.30196428,"ECCENTRICITY":0.00010663,"INCLINATION":53.1593,"RA_OF_ASC_NODE":202.2225,"ARG_OF_PERICENTER":101.3672,"MEAN_ANOMALY":258.7449,"EPHEMERIS_TYPE":0,"CLASSIFICATION_TYPE":"U","NORAD_CAT_ID":59217,"ELEMENT_SET_NO":999,"REV_AT_EPOCH":9962,"BSTAR":2.3574625e-5,"MEAN_MOTION_DOT":3.39e-6,"MEAN_MOTION_DDOT":0},{"OBJECT_NAME":"STARLINK-31421","OBJECT_ID":"2024-046T","EPOCH":"2025-12-12T00:54:44.314560","MEAN_MOTION":15.30197824,"ECCENTRICITY":0.00012369,"INCLINATION":53.159,"RA_OF_ASC_NODE":202.2151,"ARG_OF_PERICENTER":93.1425,"MEAN_ANOMALY":266.9717,"EPHEMERIS_TYPE":0,"CLASSIFICATION_TYPE":"U","NORAD_CAT_ID":59218,"ELEMENT_SET_NO":999,"REV_AT_EPOCH":9962,"BSTAR":6.3024134e-5,"MEAN_MOTION_DOT":1.508e-5,"MEAN_MOTION_DDOT":0},{"OBJECT_NAME":"STARLINK-31518","OBJECT_ID":"2024-046U","EPOCH":"2025-12-11T23:37:23.735136","MEAN_MOTION":15.30194345,"ECCENTRICITY":0.0001291,"INCLINATION":53.1596,"RA_OF_ASC_NODE":202.563,"ARG_OF_PERICENTER":95.5107,"MEAN_ANOMALY":264.6041,"EPHEMERIS_TYPE":0,"CLASSIFICATION_TYPE":"U","NORAD_CAT_ID":59219,"ELEMENT_SET_NO":999,"REV_AT_EPOCH":9961,"BSTAR":6.2271e-6,"MEAN_MOTION_DOT":-1.75e-6,"MEAN_MOTION_DDOT":0},{"OBJECT_NAME":"STARLINK-31523","OBJECT_ID":"2024-046V","EPOCH":"2025-12-11T22:26:07.989216","MEAN_MOTION":15.30199978,"ECCENTRICITY":0.0001404,"INCLINATION":53.16,"RA_OF_ASC_NODE":202.9662,"ARG_OF_PERICENTER":85.7501,"MEAN_ANOMALY":274.366,"EPHEMERIS_TYPE":0,"CLASSIFICATION_TYPE":"U","NORAD_CAT_ID":59220,"ELEMENT_SET_NO":999,"REV_AT_EPOCH":9960,"BSTAR":-2.583e-5,"MEAN_MOTION_DOT":-1.124e-5,"MEAN_MOTION_DDOT":0},{"OBJECT_NAME":"STARLINK-31516","OBJECT_ID":"2024-046W","EPOCH":"2025-12-12T00:57:46.163232","MEAN_MOTION":15.30197169,"ECCENTRICITY":0.00010061,"INCLINATION":53.1596,"RA_OF_ASC_NODE":202.2025,"ARG_OF_PERICENTER":98.2384,"MEAN_ANOMALY":261.8731,"EPHEMERIS_TYPE":0,"CLASSIFICATION_TYPE":"U","NORAD_CAT_ID":59221,"ELEMENT_SET_NO":999,"REV_AT_EPOCH":9962,"BSTAR":2.9301305e-5,"MEAN_MOTION_DOT":5.09e-6,"MEAN_MOTION_DDOT":0},{"OBJECT_NAME":"STARLINK-31490","OBJECT_ID":"2024-046X","EPOCH":"2025-12-12T00:33:36.717696","MEAN_MOTION":15.30223068,"ECCENTRICITY":0.00015113,"INCLINATION":53.1609,"RA_OF_ASC_NODE":202.8016,"ARG_OF_PERICENTER":80.3515,"MEAN_ANOMALY":279.7656,"EPHEMERIS_TYPE":0,"CLASSIFICATION_TYPE":"U","NORAD_CAT_ID":59222,"ELEMENT_SET_NO":999,"REV_AT_EPOCH":9961,"BSTAR":-0.0001598628,"MEAN_MOTION_DOT":-5.094e-5,"MEAN_MOTION_DDOT":0},{"OBJECT_NAME":"STARLINK-31420","OBJECT_ID":"2024-046Y","EPOCH":"2025-12-12T00:29:03.876000","MEAN_MOTION":15.30219747,"ECCENTRICITY":0.00010142,"INCLINATION":53.1584,"RA_OF_ASC_NODE":202.7845,"ARG_OF_PERICENTER":77.3976,"MEAN_ANOMALY":282.7138,"EPHEMERIS_TYPE":0,"CLASSIFICATION_TYPE":"U","NORAD_CAT_ID":59223,"ELEMENT_SET_NO":999,"REV_AT_EPOCH":9961,"BSTAR":0.00068799472,"MEAN_MOTION_DOT":0.00020085,"MEAN_MOTION_DDOT":0},{"OBJECT_NAME":"STARLINK-31304","OBJECT_ID":"2024-049A","EPOCH":"2025-12-12T08:00:13.999968","MEAN_MOTION":15.3343526,"ECCENTRICITY":0.00068302,"INCLINATION":43.0006,"RA_OF_ASC_NODE":265.6561,"ARG_OF_PERICENTER":194.5904,"MEAN_ANOMALY":253.5242,"EPHEMERIS_TYPE":0,"CLASSIFICATION_TYPE":"U","NORAD_CAT_ID":59231,"ELEMENT_SET_NO":999,"REV_AT_EPOCH":581,"BSTAR":0.0054881982,"MEAN_MOTION_DOT":0.00185519,"MEAN_MOTION_DDOT":0},{"OBJECT_NAME":"STARLINK-31305","OBJECT_ID":"2024-049B","EPOCH":"2025-12-12T04:06:41.361120","MEAN_MOTION":15.27573861,"ECCENTRICITY":0.00013788,"INCLINATION":43.0031,"RA_OF_ASC_NODE":277.5766,"ARG_OF_PERICENTER":268.9868,"MEAN_ANOMALY":91.0826,"EPHEMERIS_TYPE":0,"CLASSIFICATION_TYPE":"U","NORAD_CAT_ID":59232,"ELEMENT_SET_NO":999,"REV_AT_EPOCH":9900,"BSTAR":-0.000151573,"MEAN_MOTION_DOT":-4.43e-5,"MEAN_MOTION_DDOT":0},{"OBJECT_NAME":"STARLINK-31459","OBJECT_ID":"2024-049C","EPOCH":"2025-12-12T04:28:54.121728","MEAN_MOTION":15.27572418,"ECCENTRICITY":0.00013027,"INCLINATION":43.0031,"RA_OF_ASC_NODE":277.7075,"ARG_OF_PERICENTER":270.4511,"MEAN_ANOMALY":89.6192,"EPHEMERIS_TYPE":0,"CLASSIFICATION_TYPE":"U","NORAD_CAT_ID":59233,"ELEMENT_SET_NO":999,"REV_AT_EPOCH":9901,"BSTAR":-9.6477319e-5,"MEAN_MOTION_DOT":-2.915e-5,"MEAN_MOTION_DDOT":0},{"OBJECT_NAME":"STARLINK-31438","OBJECT_ID":"2024-049D","EPOCH":"2025-12-12T04:54:48.989952","MEAN_MOTION":15.27563102,"ECCENTRICITY":0.00035535,"INCLINATION":43.0102,"RA_OF_ASC_NODE":266.5897,"ARG_OF_PERICENTER":243.3028,"MEAN_ANOMALY":116.746,"EPHEMERIS_TYPE":0,"CLASSIFICATION_TYPE":"U","NORAD_CAT_ID":59234,"ELEMENT_SET_NO":999,"REV_AT_EPOCH":9914,"BSTAR":-2.8982027e-5,"MEAN_MOTION_DOT":-1.06e-5,"MEAN_MOTION_DDOT":0},{"OBJECT_NAME":"STARLINK-31467","OBJECT_ID":"2024-049E","EPOCH":"2025-12-12T04:25:12.906624","MEAN_MOTION":15.27559169,"ECCENTRICITY":0.00010738,"INCLINATION":43.0002,"RA_OF_ASC_NODE":277.689,"ARG_OF_PERICENTER":278.6404,"MEAN_ANOMALY":81.4326,"EPHEMERIS_TYPE":0,"CLASSIFICATION_TYPE":"U","NORAD_CAT_ID":59235,"ELEMENT_SET_NO":999,"REV_AT_EPOCH":9902,"BSTAR":-0.00027778773,"MEAN_MOTION_DOT":-7.893e-5,"MEAN_MOTION_DDOT":0},{"OBJECT_NAME":"STARLINK-31444","OBJECT_ID":"2024-049F","EPOCH":"2025-12-11T23:58:42.106080","MEAN_MOTION":15.27578195,"ECCENTRICITY":9.82e-5,"INCLINATION":42.9991,"RA_OF_ASC_NODE":209.2663,"ARG_OF_PERICENTER":273.1405,"MEAN_ANOMALY":86.9335,"EPHEMERIS_TYPE":0,"CLASSIFICATION_TYPE":"U","NORAD_CAT_ID":59236,"ELEMENT_SET_NO":999,"REV_AT_EPOCH":9976,"BSTAR":2.3911e-5,"MEAN_MOTION_DOT":3.96e-6,"MEAN_MOTION_DDOT":0},{"OBJECT_NAME":"STARLINK-31505","OBJECT_ID":"2024-049G","EPOCH":"2025-12-12T04:34:26.708160","MEAN_MOTION":15.27559728,"ECCENTRICITY":0.00012576,"INCLINATION":43.0009,"RA_OF_ASC_NODE":277.7468,"ARG_OF_PERICENTER":264.9276,"MEAN_ANOMALY":95.1432,"EPHEMERIS_TYPE":0,"CLASSIFICATION_TYPE":"U","NORAD_CAT_ID":59237,"ELEMENT_SET_NO":999,"REV_AT_EPOCH":9902,"BSTAR":-0.00023470539,"MEAN_MOTION_DOT":-6.711e-5,"MEAN_MOTION_DDOT":0},{"OBJECT_NAME":"STARLINK-31494","OBJECT_ID":"2024-049H","EPOCH":"2025-12-12T04:03:02.123712","MEAN_MOTION":15.27524708,"ECCENTRICITY":3.891e-5,"INCLINATION":42.9983,"RA_OF_ASC_NODE":277.5734,"ARG_OF_PERICENTER":336.768,"MEAN_ANOMALY":23.3154,"EPHEMERIS_TYPE":0,"CLASSIFICATION_TYPE":"U","NORAD_CAT_ID":59238,"ELEMENT_SET_NO":999,"REV_AT_EPOCH":9902,"BSTAR":-0.00018581061,"MEAN_MOTION_DOT":-5.362e-5,"MEAN_MOTION_DDOT":0},{"OBJECT_NAME":"STARLINK-31303","OBJECT_ID":"2024-049J","EPOCH":"2025-12-12T03:44:43.021536","MEAN_MOTION":15.27565144,"ECCENTRICITY":0.00010502,"INCLINATION":42.9995,"RA_OF_ASC_NODE":267.0307,"ARG_OF_PERICENTER":300.581,"MEAN_ANOMALY":59.4938,"EPHEMERIS_TYPE":0,"CLASSIFICATION_TYPE":"U","NORAD_CAT_ID":59239,"ELEMENT_SET_NO":999,"REV_AT_EPOCH":9914,"BSTAR":-5.2622299e-5,"MEAN_MOTION_DOT":-1.709e-5,"MEAN_MOTION_DDOT":0}]
